#dP2023 12  4  0  0  0.00000000      97 __u+U IGS20 FIT  IAC
## 2291  86400.00000000   900.00000000 60282 0.0000000000000
+  118   C06C07C08C09C11C12C13C14C16C19C20C21C22C23C24C25C26
+        C27C28C29C30C32C33C34C35C36C37C38C39C40C41C42C43C44
+        C45C46E02E03E04E05E07E08E09E10E11E12E13E15E18E19E21
+        E24E25E26E27E30E31E33E34E36G01G02G03G04G05G06G07G08
+        G09G10G11G12G13G14G15G16G17G18G19G20G21G22G23G24G25
+        G26G27G28G29G30G31G32J02J03J04R01R02R03R04R05R07R08
+        R09R11R12R13R14R15R16R17R18R19R20R21R22R24R25R26  0
++         7  7  7  7  6  7  7  7  7  5  5  5  6  5  6  6  6
++         6  6  5  6  6  6  5  6  5  5  6  6  6  6  6  6  6
++         6  5  4  4  4  4  4  4  4  4  4  4  4  4  4  4  4
++         4  4  4  4  4  4  4  4  4  3  3  3  3  3  3  3  3
++         3  3  4  3  3  3  3  4  3  3  3  4  3  3  3  3  3
++         4  3  4  3  3  4  3  9  9  9  8  7  7  7  6  6  7
++         6  7  7  8  7  6  6  7  7  7  8  7  7  7  8  8  0
%c M  cc GPS ccc cccc cccc cccc cccc ccccc ccccc ccccc ccccc
%c cc cc ccc ccc cccc cccc cccc cccc ccccc ccccc ccccc ccccc
%f  1.2500000  1.025000000  0.00000000000  0.000000000000000
%f  0.0000000  0.000000000  0.00000000000  0.000000000000000
%i    0    0    0    0      0      0      0      0         0
%i    0    0    0    0      0      0      0      0         0
/* INFORMATION & ANALYSIS CENTER (IAC)            FINAL DATA
/* S/V CLOCKS ARE ALIGNED TO GNSS TIME                      
/* G:C1WC2W R:C1PC2P E:C1XC5X C:C2IC6I J:C1CC2S             
/* PCV:IGS20_2290 OL/AL:FES2004  NONE     YN ORB:CoN CLK:CoN
*  2023 12 04  8 30  0.00000000
PC06 -18574.303362  29598.630012  23413.125691     53.551068
PC07  -6011.469169  39888.542197  12698.049036   -420.104035
PC08  -1614.931509  21797.251971 -36032.433337    202.024218
PC09  -8008.349151  28266.824330  30454.206988   -172.556418
PC11   9113.017527  12547.017942 -23124.589705    288.788291
PC12  -8416.385966  22234.472448 -14571.282884    837.115350
PC13   4287.089232  24890.039513 -33536.786196    391.301019
PC14  13459.557498  22572.639527   9468.173279   -318.512032
PC16 -20856.584253  29296.269589  21998.892925   -208.300081
PC19 -16411.113076 -14776.041837 -17033.631427   -958.001566
PC20  -9242.848616 -26235.691002  -2077.094054     59.895668
PC21  -4221.322454  22814.292846 -15509.098577   -969.088144
PC22 -14568.105377   5869.404435 -23074.770999   -200.009074
PC23  25794.918283  -1621.505458 -10513.860893   -809.645601
PC24   9490.975272  17061.861015  19908.425213    659.193483
PC25  25423.616538   9819.183661   5927.189887    270.254157
PC26 -10397.803294  13861.983709  21860.701002   -215.323703
PC27  14978.354536 -22495.254639   6959.131948    237.300204
PC28  22344.456468 -14091.778469  -8982.001968    179.373772
PC29 -16843.423528  -4161.201006  21856.478452    209.947235
PC30   -998.292619 -19690.410003  19754.052575     -9.657250
PC32   4150.583298 -22756.254421  15615.583332   -539.678944
PC33  16518.390152  14783.046698  16956.072944   -942.494095
PC34   2432.723798  18852.660562 -20430.911617    317.411576
PC35 -21805.582693  14922.282793   8915.550531    488.496809
PC36 -24813.108717 -10880.319588  -6703.953940   -107.250066
PC37  11327.403216 -13369.532795 -21708.244817   -910.794267
PC38 -10700.012580  20040.649775 -35488.582146    121.841775
PC39 -23019.873517  30225.817920  18068.208910     -5.923267
PC40 -10890.041219  37631.853117  15963.415350    -46.492870
PC41  14888.428097  -5045.780559  23105.073045   -872.369889
PC42   8410.258718  26614.562064    599.533167   -487.059802
PC43  16371.423215   5116.357024 -22020.925595     50.903409
PC44 -14171.042596  23046.915648  -6785.784108    312.368517
PC45 -25594.746078   1868.954958  10989.612993    -51.939530
PC46 -10712.770354 -16911.699566 -19470.178126   -104.796812
PE02 -19842.425161    908.207183  21948.382444     83.772450
PE03 -18117.000916  12643.140578 -19713.108645    -77.794890
PE04  10867.456259 -27259.137438   3890.942550   -272.197422
PE05 -14786.073122  -9178.501985 -23947.479253   4697.151427
PE07   2469.077554  26031.057351  13875.696335    -91.220419
PE08 -11166.605835  27049.490304  -4479.978623   -186.890159
PE09  -2325.867600 -26062.987347 -13834.813506   -250.652874
PE10   5442.718844 -16958.003300  23641.763327   -583.741401
PE11  -6810.707105 -14800.985079  24709.829557   3249.018233
PE12  15601.109442 -16420.982249  19067.138251   -804.148346
PE13   5999.204581  14953.183313 -24820.349968    -19.642160
PE15 -16092.791443  16278.100045 -18753.950822    -72.909121
PE18   3679.004053  28124.882760 -15801.034984     55.425068
PE19  18217.883926 -10072.544164  21046.104255  -1084.769425
PE21  23341.930437  15948.736138  -8761.696373   -567.208072
PE24 -12926.990505 -24468.021095 -10560.344735   -466.964781
PE25 -23284.393349 -16235.965358   8414.512134     -2.475969
PE26  24671.378896   4581.760992 -15684.034411    299.657288
PE27  13392.526264  24362.864279  10140.808027   -215.697853
PE30  -4721.136161  18124.198950  22906.360142   -714.092255
PE31   4312.697906 -18331.259962 -22834.310246    -11.103296
PE33  28547.798219  -7706.156652   1234.959353      3.563949
PE34 -28418.914928   8105.004814  -1802.954993    -81.471544
PE36 -24224.084500  -4919.313062  16291.337137   -152.931785
PG01   2886.941225  14439.724086 -22452.465627    163.559099
PG02  -4185.995211  16040.376095 -20201.183191   -520.314101
PG03   9260.126421  21763.650103 -12336.653068     29.974004
PG04    566.010039  23817.421708  11609.914154    230.311913
PG05   2134.647405 -17032.171626  20065.819381   -152.818870
PG06  25843.504640  -6342.870828    658.948107    488.165158
PG07  19534.017469   7802.410984  16971.551559     -3.128202
PG08  -4307.707337  25772.839990  -3352.982129   -155.253685
PG09   9470.306867  15970.787361  18883.656954     16.291902
PG10 -20638.594637  -6900.837872 -15259.625072    -63.936918
PG11  20750.090848 -11977.768002  11430.583733   -486.885596
PG12  -6747.083559 -22345.901521 -13021.625742   -453.829817
PG13  13505.560288 -22241.237849   4511.676688    602.068926
PG14  21206.973629  10062.887152 -12573.130604    261.289995
PG15    997.787456 -26236.193163  -3615.154704    103.502339
PG16  -9285.545500  12147.147000  21352.773780   -410.557138
PG17  15127.624632   1130.813980 -21381.257263    722.484324
PG18 -20541.741579  -6381.714131  15714.748322   -497.012939
PG19  17137.939228  -7743.490261 -18803.612064    407.738783
PG20  13482.110939  -8776.367380  21159.083618    398.382715
PG21  -7290.271119  16309.509550 -18820.573240    142.524370
PG22  18850.023719   3957.462931 -17718.775878     72.228241
PG23 -20674.399767 -16201.536466  -4557.559837    109.956200
PG24   2570.310505 -16971.372676 -20576.376765   -385.869695
PG25 -16978.419187 -20436.433776  -3056.594113    480.097123
PG26 -16558.509609   5092.898960  20082.563433    211.949996
PG27 -12757.073022  20992.262241   9275.700590    -78.560427
PG28 -25845.558787   5834.617570  -1824.046914    -61.353657
PG29  -7262.814768 -17082.564756  18913.131094   -609.989601
PG30  25376.257433    379.471694   8400.590179   -461.304853
PG31 -24012.937744   9851.435243   6376.824797   -226.313482
PG32 -15998.655741   3301.558753 -20713.900465   -592.824076
PJ02 -26088.362390  22364.433493  29582.323892     -0.404919
PJ03 -34780.573581  21938.965499  -4419.278188    -10.597138
PJ04 -19445.335164  28498.596074 -19203.283182     73.494292
PR01 -10757.872115   2263.048689 -23020.701110     71.326177
PR02  -5458.210436  19329.629019 -15637.296844    -22.315221
PR03   3055.780448  25279.261587    756.784859     90.255798
PR04   9303.313629  17253.614646  16335.294436    213.772871
PR05  10763.514672    -74.859729  23132.112359    123.269483
PR07  -3373.393183 -25269.097223  -1497.742812     70.574513
PR08  -9518.566741 -17096.127536 -16333.091702    -73.533649
PR09  10155.832886  -7687.318195 -22097.058763    156.804425
PR11 -20679.045521 -12790.437833  -7679.244942   -218.197715
PR12 -22477.446542  -3782.842736  11489.379790     34.101042
PR13 -12187.391138   6092.610961  21547.141072    -41.962622
PR14   7772.350793  13864.008676  19963.845135     25.687576
PR15  21264.164612  12604.926105   6315.150318     84.251927
PR16  22586.232980   3922.822588 -11214.692673     21.214976
PR17  -4592.466085  14729.114342 -20310.940887     40.521927
PR18  10649.743331   4982.567868 -22620.001306    115.143498
PR19  20165.493336  -5508.719841 -14604.892362   -257.019148
PR20  19245.916964 -15739.564910   5805.117569   -104.590218
PR21   4105.745492 -14363.384718  20674.645162    -58.336596
PR22 -11523.256021  -4978.706165  22235.611914     96.616918
PR24 -18261.362506  16678.631037  -6260.715819    -34.610317
PR25   4956.473875 -14708.208775  20246.016552 999999.999999
PR26  -9473.423954 -17526.364453 -15902.046397    -13.850363
EOF
